[{"OBJECT_NAME":"ASTROCAST-0402","OBJECT_ID":"2023-001DE","EPOCH":"2026-03-09T19:21:31.190400","MEAN_MOTION":15.26734153,"ECCENTRICITY":0.00042092,"INCLINATION":97.5556,"RA_OF_ASC_NODE":160.6821,"ARG_OF_PERICENTER":216.6984,"MEAN_ANOMALY":143.3966,"EPHEMERIS_TYPE":0,"CLASSIFICATION_TYPE":"U","NORAD_CAT_ID":55109,"ELEMENT_SET_NO":999,"REV_AT_EPOCH":12936,"BSTAR":0.00041835119,"MEAN_MOTION_DOT":0.0001093,"MEAN_MOTION_DDOT":0},{"OBJECT_NAME":"OBJECT D","OBJECT_ID":"2023-091D","EPOCH":"2026-03-09T22:26:22.181280","MEAN_MOTION":15.22514214,"ECCENTRICITY":0.00120544,"INCLINATION":97.5229,"RA_OF_ASC_NODE":130.3318,"ARG_OF_PERICENTER":91.7077,"MEAN_ANOMALY":268.554,"EPHEMERIS_TYPE":0,"CLASSIFICATION_TYPE":"U","NORAD_CAT_ID":57169,"ELEMENT_SET_NO":999,"REV_AT_EPOCH":14905,"BSTAR":0.00044221161,"MEAN_MOTION_DOT":0.00010204,"MEAN_MOTION_DDOT":0}]
